[{"OBJECT_NAME":"PE2_FLT1 (TYVAK-0261)","OBJECT_ID":"2024-043H","EPOCH":"2026-03-09T22:11:30.005376","MEAN_MOTION":14.96611647,"ECCENTRICITY":0.00060821,"INCLINATION":97.8224,"RA_OF_ASC_NODE":199.4267,"ARG_OF_PERICENTER":22.6188,"MEAN_ANOMALY":337.53,"EPHEMERIS_TYPE":0,"CLASSIFICATION_TYPE":"U","NORAD_CAT_ID":59105,"ELEMENT_SET_NO":999,"REV_AT_EPOCH":10980,"BSTAR":0.00036312112,"MEAN_MOTION_DOT":4.08e-5,"MEAN_MOTION_DDOT":0},{"OBJECT_NAME":"STARLINK-34243","OBJECT_ID":"2025-126T","EPOCH":"2026-03-09T23:22:18.779808","MEAN_MOTION":14.98323409,"ECCENTRICITY":0.00030812,"INCLINATION":70.0027,"RA_OF_ASC_NODE":33.7742,"ARG_OF_PERICENTER":266.3696,"MEAN_ANOMALY":93.7111,"EPHEMERIS_TYPE":0,"CLASSIFICATION_TYPE":"U","NORAD_CAT_ID":64361,"ELEMENT_SET_NO":999,"REV_AT_EPOCH":4072,"BSTAR":0.00039546128,"MEAN_MOTION_DOT":4.628e-5,"MEAN_MOTION_DDOT":0}]
